1 25115U 97084D   19273.16712997  .00000088  00000-0  74243-4 0  9996
2 25115  45.0161 224.8962 0003622 176.5643 183.5231 14.38937191140566
1 25115U 97084D   19273.93084140 +.00000090 +00000-0 +74788-4 0  9990
2 25115 045.0161 221.2706 0003678 180.2884 179.7963 14.38937507140451
1 25115U 97084D   19274.20855466  .00000088  00000-0  74214-4 0  9999
2 25115  45.0161 219.9523 0003699 181.5462 178.5375 14.38937604140712
1 25115U 97084D   19274.90283749 +.00000084 +00000-0 +72857-4 0  9992
2 25115 045.0161 216.6562 0003753 184.9062 175.1750 14.38937903140591
1 25115U 97084D   19275.24997890  .00000086  00000-0  73633-4 0  9994
2 25115  45.0161 215.0084 0003774 186.3590 173.7211 14.38938079140869
1 25115U 97084D   19276.29140272  .00000093  00000-0  75732-4 0  9994
2 25115  45.0163 210.0645 0003846 191.0157 169.0608 14.38938633141013
1 25115U 97084D   19276.84682864 +.00000097 +00000-0 +77024-4 0  9993
2 25115 045.0163 207.4277 0003883 193.5604 166.5141 14.38938910140874
1 25115U 97084D   19277.81882378  .00000105  00000-0  79661-4 0  9992
2 25115  45.0164 202.8134 0003946 197.8433 162.2278 14.38939403141236
1 25115U 97084D   19278.86024677  .00000108  00000-0  80531-4 0  9999
2 25115  45.0164 197.8696 0004016 202.2791 157.7884 14.38939918141388
1 25115U 97084D   19279.90166939 +.00000095 +00000-0 +76556-4 0  9990
2 25115 045.0164 192.9259 0004084 206.7401 153.3238 14.38940386141310
1 25115U 97084D   19280.10995389  .00000095  00000-0  76572-4 0  9991
2 25115  45.0164 191.9372 0004094 207.5648 152.4984 14.38940493141562
1 25115U 97084D   19280.80423533 +.00000084 +00000-0 +72813-4 0  9997
2 25115 045.0164 188.6413 0004140 210.5277 149.5331 14.38940809141446
1 25115U 97084D   19281.15137606  .00000078  00000-0  71104-4 0  9994
2 25115  45.0163 186.9935 0004159 211.9576 148.1021 14.38940956141716
1 25115U 97084D   19281.77622921 +.00000075 +00000-0 +69932-4 0  9994
2 25115 045.0163 184.0271 0004197 214.5792 145.4784 14.38941243141580
1 25115U 97084D   19282.33165418  .00000075  00000-0  70133-4 0  9995
2 25115  45.0163 181.3905 0004223 216.8319 143.2241 14.38941515141883
1 25115U 97084D   19282.88707903 +.00000086 +00000-0 +73399-4 0  9995
2 25115 045.0162 178.7537 0004262 219.1009 140.9532 14.38941802141749
1 25115U 97084D   19283.72021614  .00000107  00000-0  80341-4 0  9996
2 25115  45.0161 174.7986 0004306 222.5527 137.4989 14.38942256142083
1 25115U 97084D   19283.85907233 +.00000105 +00000-0 +79535-4 0  9991
2 25115 045.0161 174.1394 0004313 223.0781 136.9730 14.38942302141883
1 25115U 97084D   19284.76163723  .00000124  00000-0  85627-4 0  9990
2 25115  45.0161 169.8547 0004351 226.6274 133.4213 14.38942803142236
1 25115U 97084D   19284.90049335 +.00000126 +00000-0 +86411-4 0  9992
2 25115 045.0160 169.1956 0004359 227.1522 132.8961 14.38942883142031
